#dP2022  7  8 18  0  0.00000000      96 __u+U ITR00 EXT  IAC
## 2217 496800.00000000   900.00000000 59768 0.7500000000000
+  113   C06C07C08C09C10C11C12C13C14C19C20C21C22C23C24C25C26
+        C27C28C29C30C32C33C34C35C36C37C38C39C41C42C43C44C45
+        C46E01E02E03E04E05E07E08E09E10E11E12E13E14E15E18E19
+        E21E24E25E26E27E30E31E33E34E36G01G02G03G04G05G06G07
+        G08G09G10G11G12G13G14G15G16G17G18G19G20G21G22G23G24
+        G25G26G27G28G29G30G31G32J02R01R02R03R04R05R07R08R09
+        R11R12R13R14R15R17R18R19R20R21R24  0  0  0  0  0  0
++        10  9 10 10  9  9  8 10  8  9  7  7  8  9  8  8  7
++         7  8  9  8  9  9  8  7  9  8  7 11  8  7  8  8  9
++         8  8  8  7  7  6  7  6  7  9  7  7  6  8  8  8  8
++         8  7  8  7  6  8  7  7  8  6  7  8  7  8  8  7  7
++         7  8  9  7  8  7  8  7  6  7  8  7  8  8  7  7  6
++         6  7  6  6  8  7  8  7  8  7  8  8  7  8  7  9  7
++         9 12  7  8  9  9  7  8  8  8  9  0  0  0  0  0  0
%c M  cc GPS ccc cccc cccc cccc cccc ccccc ccccc ccccc ccccc
%c cc cc ccc ccc cccc cccc cccc cccc ccccc ccccc ccccc ccccc
%f  0.0000000  0.000000000  0.00000000000  0.000000000000000
%f  0.0000000  0.000000000  0.00000000000  0.000000000000000
%i    0    0    0    0      0      0      0      0         0
%i    0    0    0    0      0      0      0      0         0
/* IAC                                ULTRA-RAPID PREDICTION
/* S/V CLOCKS ARE ALIGNED TO GNSS TIME                      
/* G:C1WC2W R:C1PC2P E:C1XC5X C:C2IC6I J:C1CC2S             
/* PCV:IGS14_2215 OL/AL:FES2004  NONE     YN ORB:CoN CLK:CoN
*  2022 07 09 15  0  0.00000000
PC06  -4414.517251  24772.046552  33868.681229    358.213793
PC07 -16256.150172  34919.489795 -17288.335487   -406.521572
PC08  -2275.545404  39606.300607 -14085.035016    397.300185
PC09   3350.160054  27405.530467  32369.426360   -933.242730
PC10 -10889.269585  34743.427700 -21385.619800    119.943550
PC11 -22451.600270   3066.877978 -16253.668239    464.106107
PC12 -26296.814193  -9371.513184    -50.445317   -581.054095
PC13    945.930838  40842.932971  -9703.056168     19.091148
PC14 -22991.885265  14564.057241  -6291.376175    534.128218
PC19  19303.706869 -19895.258673  -3069.695873   -173.394006
PC20  23090.224435  -8240.892424  13310.399141   -964.011370
PC21 -13241.152257  -9163.571124 -22778.453781   -644.263033
PC22   4162.937642 -20525.841022 -18426.591797   -962.851741
PC23   2686.962438  27529.456646   3712.294953   -942.947221
PC24 -16736.872441  -2246.609487  22217.826633   -967.994693
PC25  -9025.385425  19219.843229  18094.989593   -710.074833
PC26 -14448.700644 -19521.636268  13765.850707    711.979969
PC27  22562.757726  14135.340154  -8402.018191    751.595658
PC28   6244.538825  17498.344103 -20822.392443     88.023852
PC29  14290.690087 -11039.250929  21263.573874    579.395981
PC30  26527.861169   2104.246136   8422.189094    500.903861
PC32  13242.411142   9168.695340  22801.342791   -973.112760
PC33 -19234.219444  20009.699412   3014.001266   -125.227779
PC34 -26234.924655  -1331.354305  -9407.599300   -362.644027
PC35  -5514.481042 -17233.965580  21222.422737    358.034054
PC36   9757.297496 -18565.363022 -18378.904400   -973.780195
PC37  13504.617360  20759.037670 -12822.634582   -915.099522
PC38  -7464.059767  36079.180588 -20362.467273      8.938584
PC39 -12744.466544  20937.920680  34307.426157     -0.024843
PC41  -4544.335179  20757.422916  18142.442395    -66.638765
PC42 -22921.823502   7393.249268 -14073.555086   -954.549804
PC43 -15033.144416  10701.792226 -20941.821514      1.967438
PC44 -22914.576910 -13425.853212   8505.280594    718.576869
PC45  -2956.556027 -27550.740840  -3386.849619    804.559332
PC46  16417.142178    341.323130 -22551.583719   -422.721022
PE01  16770.181394   2049.070055 -24299.518115   -511.859970
PE02 -16822.812630  -1863.332708  24285.220619    310.866252
PE03 -28317.175691   -449.819405  -8635.193321   -577.233480
PE04  25284.144787 -12034.017376  -9580.464242  -1067.698567
PE05 -14742.361936 -12942.335676 -22161.487655   -164.561932
PE07  -7195.770612  17722.046935  22602.140081   -685.951504
PE08 -25152.107764  12165.130119   9801.966812   -560.676933
PE09   7126.131313 -17602.664663 -22694.739881   -581.683074
PE10   6414.854717 -16048.174305  24016.119581   -525.151520
PE11  -3093.294997 -22257.646031  19242.424921   3070.350264
PE12  14533.766817  -7712.339837  24596.727828    -53.180221
PE13   2515.283078  21907.044260 -19753.284266    429.730192
PE14 -22786.351158  -9133.705603  11957.793907  -1784.070751
PE15 -14567.753716   7565.166181 -24634.606570    734.334861
PE18  12894.768662  16930.587152 -20660.055075  -1234.137223
PE19  27437.478269   2216.091279  10891.797540  -5141.662741
PE21   7411.035756  20552.254056 -19967.931421   -744.908702
PE24   7694.921067 -28451.803692   2831.276301   -715.475608
PE25  -7230.172745 -20771.941542  19819.725660   -580.456652
PE26  18422.951347  23042.105033  -2391.673151  -1357.149325
PE27  -6823.236870  28531.956036  -3915.297135   -340.857320
PE30 -17264.733336  18802.009305  14974.657817   -658.467904
PE31  16898.849215 -19663.927310 -14269.176527   -499.626876
PE33  22971.006679  11171.115144  14957.094567   -454.858422
PE34 -22980.066683 -10950.551563 -15128.187877   -526.219120
PE36 -17986.847361 -23270.505919   3307.278523   -399.728982
PG01  19139.131973   9568.813830  15650.179947    324.801620
PG02 -14396.645020 -21905.161116   4346.798787   -651.695633
PG03  15976.178005   -556.012232  21071.137246   -302.534975
PG04  26080.212735   1879.224985   4934.709156   -147.932826
PG05  -9711.927144 -14029.162139 -20490.434542    -88.512711
PG06  -2512.072592 -21410.727553  15523.679353    377.729681
PG07  13823.352672  -6759.369592 -21263.484368    319.860891
PG08  22888.590035   6024.853978 -12436.784614    -75.494826
PG09  25096.912754  -6833.187441  -5543.998811   -320.747365
PG10 -11318.413354  23833.535845   -641.369839   -485.615245
PG11 -11884.972257 -23492.495953   3599.288861    -11.162652
PG12 -14844.094350  -3568.712069  21458.742158   -243.763668
PG13 -14736.484721 -13038.380873 -18080.537296    345.108275
PG14  13180.447446 -22903.416650  -2058.333735   -111.967553
PG15 -23342.728097  -4330.883573 -12634.968521    -46.796847
PG16   3993.662222  18677.259813 -18530.592503   -514.323087
PG17  13746.543178 -13208.813394  18947.317558    634.842609
PG18 -13369.891485   6927.878190 -21895.987962    118.430869
PG19   4218.220109 -14503.997500  21568.408170    181.448210
PG20  -2896.004678 -23377.623107 -12485.960787    504.633095
PG21  20589.526078  15627.674772   8158.863086    161.168550
PG22   -955.105242  15392.946379  22038.194191    289.448219
PG23 -15883.205389  18174.252575 -10968.585505    -32.140610
PG24 -20948.229084 -11715.956453  11506.167291    201.325253
PG25 -17488.174179  11160.966508  16141.039677    347.137347
PG26  -1820.606167  24483.761227  -9813.763403    217.229127
PG27  11580.165613  12903.259567 -20445.054909    220.223252
PG28   7982.928546 -24434.407742   7657.523802    332.647638
PG29 -25480.361197   4609.348687  -6143.919376   -531.950202
PG30   6142.346242 -16613.890166 -19628.664865   -533.587167
PG31   3963.602154  22444.171953  13109.276338   -185.071718
PG32 -10334.008162  14853.680870  19526.053071   -171.839017
PJ02 -31048.516770  25734.450413  17406.514998     -1.491475
PR01  19441.619062  -3030.503584  16226.371095     11.198110
PR02  21488.552106 -13658.979273  -1962.524332    523.654795
PR03  10068.238173 -15622.938479 -17452.679429     59.911693
PR04  -6594.599226  -8609.997869 -23058.185222    150.013030
PR05 -19688.223908   2920.101864 -15927.481974     95.954353
PR07  -9275.012379  15461.396111  18061.644087     37.600446
PR08   6863.768279   8617.422189  23064.421803    -66.129463
PR09  -8858.888971  14646.662099  18964.997281     64.853013
PR11   6230.571293  21762.716128 -11760.160753     33.793110
PR12  10876.732710   4850.518162 -22525.176302     19.219197
PR13   9100.953835 -13231.182590 -19826.522631    -24.436199
PR14   1585.386592 -25042.612710  -4508.749812     24.942549
PR15  -6431.561864 -21244.845638  12587.001943     94.753616
PR17  -2020.999822 -12658.734979  22061.335779    541.996085
PR18 -16672.758831 -15524.573332  11433.692433    123.021339
PR19 -22371.246380 -11562.447908  -4097.341597   -195.677140
PR20 -15009.638917   1480.311090 -20559.905998    -74.263036
PR21   3443.917003  13165.269439 -21575.601049   -316.029990
PR24  14673.693009  -2703.957973  20692.180257    102.707481
EOF
